[{"OBJECT_NAME":"STARLINK-30069","OBJECT_ID":"2023-079M","EPOCH":"2026-03-08T11:34:15.947328","MEAN_MOTION":15.26726881,"ECCENTRICITY":4.69e-5,"INCLINATION":42.9986,"RA_OF_ASC_NODE":110.4464,"ARG_OF_PERICENTER":272.6695,"MEAN_ANOMALY":87.4103,"EPHEMERIS_TYPE":0,"CLASSIFICATION_TYPE":"U","NORAD_CAT_ID":56834,"ELEMENT_SET_NO":999,"REV_AT_EPOCH":15274,"BSTAR":-8.0472e-5,"MEAN_MOTION_DOT":-2.416e-5,"MEAN_MOTION_DDOT":0},{"OBJECT_NAME":"STARLINK-32765","OBJECT_ID":"2025-014N","EPOCH":"2026-03-09T05:07:20.661312","MEAN_MOTION":15.27599854,"ECCENTRICITY":4.813e-5,"INCLINATION":42.998,"RA_OF_ASC_NODE":157.1578,"ARG_OF_PERICENTER":205.874,"MEAN_ANOMALY":154.2087,"EPHEMERIS_TYPE":0,"CLASSIFICATION_TYPE":"U","NORAD_CAT_ID":62747,"ELEMENT_SET_NO":999,"REV_AT_EPOCH":6318,"BSTAR":0.0014361809,"MEAN_MOTION_DOT":0.00039494,"MEAN_MOTION_DDOT":0}]
