STARLINK-30069          
1 56834U 23079M   26067.48212902 -.00002416  00000+0 -80472-4 0  9995
2 56834  42.9986 110.4464 0000469 272.6695  87.4103 15.26726881152740
STARLINK-32765          
1 62747U 25014N   26068.21343358  .00039494  00000+0  14362-2 0  9995
2 62747  42.9980 157.1578 0000481 205.8740 154.2087 15.27599854 63183
